{
  "type": "FeatureCollection",
  "features": [
    {
      "type": "Feature",
      "properties": {
        "norad_id": 34121,
        "name": "COSMOS 2251 DEB",
        "group": "cosmos-2251-debris",
        "lat": -22.008454208795346,
        "lon": 79.80830454557027,
        "alt_km": 803.7737306936315,
        "timestamp": "2025-12-18T23:35:49.456885+00:00",
        "meta_object_name": "COSMOS 2251 DEB",
        "meta_object_id": "1993-036KS",
        "meta_epoch": "2025-12-18T06:33:08.741376",
        "meta_mean_motion": 13.91949154,
        "meta_eccentricity": 0.02405913,
        "meta_inclination": 73.9924,
        "meta_ra_of_asc_node": 87.688,
        "meta_arg_of_pericenter": 291.969,
        "meta_mean_anomaly": 85.7913,
        "meta_ephemeris_type": 0,
        "meta_classification_type": "U",
        "meta_norad_cat_id": 34121,
        "meta_element_set_no": 999,
        "meta_rev_at_epoch": 85202,
        "meta_bstar": 0.00098012123,
        "meta_mean_motion_dot": 1.558e-05,
        "meta_mean_motion_ddot": 0,
        "tle_line1": "1 34121U 93036KS  25352.27301784  .00001558  00000+0  98012-3 0  9992",
        "tle_line2": "2 34121  73.9924  87.6880 0240591 291.9690  85.7913 13.91949154852027"
      },
      "geometry": {
        "type": "Point",
        "coordinates": [
          79.80830454557027,
          -22.008454208795346
        ]
      }
    },
    {
      "type": "Feature",
      "properties": {
        "norad_id": 34122,
        "name": "COSMOS 2251 DEB",
        "group": "cosmos-2251-debris",
        "lat": 63.71808845341866,
        "lon": 142.0487057600081,
        "alt_km": 646.5031919827779,
        "timestamp": "2025-12-18T23:35:49.456896+00:00",
        "meta_object_name": "COSMOS 2251 DEB",
        "meta_object_id": "1993-036KT",
        "meta_epoch": "2025-12-18T07:01:38.778816",
        "meta_mean_motion": 14.65116089,
        "meta_eccentricity": 0.00846266,
        "meta_inclination": 74.0359,
        "meta_ra_of_asc_node": 107.95,
        "meta_arg_of_pericenter": 3.2392,
        "meta_mean_anomaly": 24.788,
        "meta_ephemeris_type": 0,
        "meta_classification_type": "U",
        "meta_norad_cat_id": 34122,
        "meta_element_set_no": 999,
        "meta_rev_at_epoch": 88766,
        "meta_bstar": 0.00088948439,
        "meta_mean_motion_dot": 5.008e-05,
        "meta_mean_motion_ddot": 0,
        "tle_line1": "1 34122U 93036KT  25352.29280994  .00005008  00000+0  88948-3 0  9995",
        "tle_line2": "2 34122  74.0359 107.9500 0084626   3.2392  24.7880 14.65116089887664"
      },
      "geometry": {
        "type": "Point",
        "coordinates": [
          142.0487057600081,
          63.71808845341866
        ]
      }
    },
    {
      "type": "Feature",
      "properties": {
        "norad_id": 34127,
        "name": "COSMOS 2251 DEB",
        "group": "cosmos-2251-debris",
        "lat": -49.902172326718286,
        "lon": 12.901687239956228,
        "alt_km": 772.1839098730698,
        "timestamp": "2025-12-18T23:35:49.456906+00:00",
        "meta_object_name": "COSMOS 2251 DEB",
        "meta_object_id": "1993-036KY",
        "meta_epoch": "2025-12-18T14:22:22.800864",
        "meta_mean_motion": 14.31597296,
        "meta_eccentricity": 0.0114958,
        "meta_inclination": 74.1793,
        "meta_ra_of_asc_node": 33.2747,
        "meta_arg_of_pericenter": 232.1614,
        "meta_mean_anomaly": 254.0003,
        "meta_ephemeris_type": 0,
        "meta_classification_type": "U",
        "meta_norad_cat_id": 34127,
        "meta_element_set_no": 999,
        "meta_rev_at_epoch": 86855,
        "meta_bstar": 0.0012510289,
        "meta_mean_motion_dot": 3.557e-05,
        "meta_mean_motion_ddot": 0,
        "tle_line1": "1 34127U 93036KY  25352.59887501  .00003557  00000+0  12510-2 0  9998",
        "tle_line2": "2 34127  74.1793  33.2747 0114958 232.1614 254.0003 14.31597296868556"
      },
      "geometry": {
        "type": "Point",
        "coordinates": [
          12.901687239956228,
          -49.902172326718286
        ]
      }
    },
    {
      "type": "Feature",
      "properties": {
        "norad_id": 34128,
        "name": "COSMOS 2251 DEB",
        "group": "cosmos-2251-debris",
        "lat": -72.36671324899869,
        "lon": -140.54585066435052,
        "alt_km": 577.8097532171278,
        "timestamp": "2025-12-18T23:35:49.456917+00:00",
        "meta_object_name": "COSMOS 2251 DEB",
        "meta_object_id": "1993-036KZ",
        "meta_epoch": "2025-12-18T13:32:50.222688",
        "meta_mean_motion": 15.01386893,
        "meta_eccentricity": 0.00261105,
        "meta_inclination": 73.9994,
        "meta_ra_of_asc_node": 284.8334,
        "meta_arg_of_pericenter": 35.8198,
        "meta_mean_anomaly": 139.6098,
        "meta_ephemeris_type": 0,
        "meta_classification_type": "U",
        "meta_norad_cat_id": 34128,
        "meta_element_set_no": 999,
        "meta_rev_at_epoch": 89254,
        "meta_bstar": 0.0012698689,
        "meta_mean_motion_dot": 0.00016496,
        "meta_mean_motion_ddot": 0,
        "tle_line1": "1 34128U 93036KZ  25352.56447017  .00016496  00000+0  12699-2 0  9994",
        "tle_line2": "2 34128  73.9994 284.8334 0026110  35.8198 139.6098 15.01386893892545"
      },
      "geometry": {
        "type": "Point",
        "coordinates": [
          -140.54585066435052,
          -72.36671324899869
        ]
      }
    },
    {
      "type": "Feature",
      "properties": {
        "norad_id": 34129,
        "name": "COSMOS 2251 DEB",
        "group": "cosmos-2251-debris",
        "lat": -17.32473046408932,
        "lon": -37.81510898884688,
        "alt_km": 637.0946345629218,
        "timestamp": "2025-12-18T23:35:49.456927+00:00",
        "meta_object_name": "COSMOS 2251 DEB",
        "meta_object_id": "1993-036LA",
        "meta_epoch": "2025-12-18T09:02:11.415264",
        "meta_mean_motion": 14.75834585,
        "meta_eccentricity": 0.00331651,
        "meta_inclination": 74.0348,
        "meta_ra_of_asc_node": 328.4951,
        "meta_arg_of_pericenter": 48.1918,
        "meta_mean_anomaly": 312.208,
        "meta_ephemeris_type": 0,
        "meta_classification_type": "U",
        "meta_norad_cat_id": 34129,
        "meta_element_set_no": 999,
        "meta_rev_at_epoch": 61381,
        "meta_bstar": 0.0011762776,
        "meta_mean_motion_dot": 8.117e-05,
        "meta_mean_motion_ddot": 0,
        "tle_line1": "1 34129U 93036LA  25352.37652101  .00008117  00000+0  11763-2 0  9998",
        "tle_line2": "2 34129  74.0348 328.4951 0033165  48.1918 312.2080 14.75834585613813"
      },
      "geometry": {
        "type": "Point",
        "coordinates": [
          -37.81510898884688,
          -17.32473046408932
        ]
      }
    },
    {
      "type": "Feature",
      "properties": {
        "norad_id": 34136,
        "name": "COSMOS 2251 DEB",
        "group": "cosmos-2251-debris",
        "lat": -51.70082829980563,
        "lon": -128.40523207101901,
        "alt_km": 627.791272519481,
        "timestamp": "2025-12-18T23:35:49.456937+00:00",
        "meta_object_name": "COSMOS 2251 DEB",
        "meta_object_id": "1993-036LH",
        "meta_epoch": "2025-12-18T13:29:26.234016",
        "meta_mean_motion": 14.80117749,
        "meta_eccentricity": 0.00853475,
        "meta_inclination": 74.0204,
        "meta_ra_of_asc_node": 31.1496,
        "meta_arg_of_pericenter": 152.5564,
        "meta_mean_anomaly": 358.2497,
        "meta_ephemeris_type": 0,
        "meta_classification_type": "U",
        "meta_norad_cat_id": 34136,
        "meta_element_set_no": 999,
        "meta_rev_at_epoch": 90096,
        "meta_bstar": 0.00028114564,
        "meta_mean_motion_dot": 2.233e-05,
        "meta_mean_motion_ddot": 0,
        "tle_line1": "1 34136U 93036LH  25352.56210919  .00002233  00000+0  28115-3 0  9997",
        "tle_line2": "2 34136  74.0204  31.1496 0085347 152.5564 358.2497 14.80117749900969"
      },
      "geometry": {
        "type": "Point",
        "coordinates": [
          -128.40523207101901,
          -51.70082829980563
        ]
      }
    },
    {
      "type": "Feature",
      "properties": {
        "norad_id": 34139,
        "name": "COSMOS 2251 DEB",
        "group": "cosmos-2251-debris",
        "lat": -22.147253403180507,
        "lon": 68.85583177755103,
        "alt_km": 710.7439288812375,
        "timestamp": "2025-12-18T23:35:49.456948+00:00",
        "meta_object_name": "COSMOS 2251 DEB",
        "meta_object_id": "1993-036LL",
        "meta_epoch": "2025-12-18T03:36:24.636096",
        "meta_mean_motion": 14.59134472,
        "meta_eccentricity": 0.00425462,
        "meta_inclination": 74.0311,
        "meta_ra_of_asc_node": 243.7499,
        "meta_arg_of_pericenter": 313.9668,
        "meta_mean_anomaly": 195.9906,
        "meta_ephemeris_type": 0,
        "meta_classification_type": "U",
        "meta_norad_cat_id": 34139,
        "meta_element_set_no": 999,
        "meta_rev_at_epoch": 88228,
        "meta_bstar": 0.0010105781,
        "meta_mean_motion_dot": 4.792e-05,
        "meta_mean_motion_ddot": 0,
        "tle_line1": "1 34139U 93036LL  25352.15028514  .00004792  00000+0  10106-2 0  9995",
        "tle_line2": "2 34139  74.0311 243.7499 0042546 313.9668 195.9906 14.59134472882280"
      },
      "geometry": {
        "type": "Point",
        "coordinates": [
          68.85583177755103,
          -22.147253403180507
        ]
      }
    }
  ]
}